#dP2023  1 16 18  0  0.00000000      96 __u+U ITR00 EXT  IAC
## 2245 151200.00000000   900.00000000 59960 0.7500000000000
+  119   C06C07C08C09C10C11C12C13C14C16C19C20C21C22C23C24C25
+        C26C27C28C29C30C32C33C34C35C36C37C38C39C40C41C42C43
+        C44C45C46E01E02E03E04E05E07E08E09E10E11E12E13E14E15
+        E18E19E21E24E25E26E27E30E31E33E34E36G01G02G03G04G05
+        G06G07G08G09G10G11G12G13G14G15G16G17G18G19G20G21G22
+        G23G24G25G26G27G29G30G31G32J02J03J04R01R02R03R04R05
+        R07R08R09R11R12R13R14R15R16R17R18R19R20R21R22R24R25
++        11 10  6  9  8 10  9 10 10 11  8  9  9  9  8  8  7
++         8  8 10  9  7 10  8  7 10  8  8 10 11  8  8  8  7
++         9  9  8  6  7  6  8  6  6  8  6  7  8  7  7  6  7
++         7  7  8  8  6  8  8  6  6  7  6  6  7  8  6  6  7
++         7  7  6  8  8  6  6  7  7  7  7  8  8  8  6  6  7
++         7  6  7  7  7  8  7  7  7 10  9  7  8  8  9  7  8
++         8  9  7  8  7  7  8  6  9  7  7  9  8  8  8  8  8
%c M  cc GPS ccc cccc cccc cccc cccc ccccc ccccc ccccc ccccc
%c cc cc ccc ccc cccc cccc cccc cccc ccccc ccccc ccccc ccccc
%f  0.0000000  0.000000000  0.00000000000  0.000000000000000
%f  0.0000000  0.000000000  0.00000000000  0.000000000000000
%i    0    0    0    0      0      0      0      0         0
%i    0    0    0    0      0      0      0      0         0
/* IAC                                ULTRA-RAPID PREDICTION
/* S/V CLOCKS ARE ALIGNED TO GNSS TIME                      
/* G:C1WC2W R:C1PC2P E:C1XC5X C:C2IC6I J:C1CC2S             
/* PCV:IGS20_2239 OL/AL:FES2004  NONE     YN ORB:CoN CLK:CoN
*  2023 01 17 16  0  0.00000000
PC06 -13403.545538  23821.797429 -32160.507766   -186.010718
PC07 -12184.438983  40159.035626   3006.467031      2.384483
PC08      0.000000      0.000000      0.000000    527.775653
PC09  -4558.619117  24206.483708 -33872.994250    300.080217
PC10  -7122.636981  40462.390638   8506.001324     30.374407
PC11 -27458.732572   2026.623601  -4410.450454   -172.652532
PC12 -18029.149380  -9359.156559 -19087.656015    402.502569
PC13   6613.339485  34223.633172  24082.406246    185.576674
PC14 -17002.126286   4244.430281  21724.005890    378.332933
PC16 -15396.746903  22979.455730 -31730.348600     79.934490
PC19  16749.261815 -14634.133044 -16837.102424   -896.686223
PC20  15003.953884   4680.401931 -23046.248829    763.395276
PC21  -4007.400539 -22681.185041  15783.316595   -916.234075
PC22   8972.488750 -26428.239138   -620.424566   -680.858988
PC23  -3161.097907  18635.243375 -20537.754976   -871.892149
PC24 -21921.159302 -14802.861651  -8863.590530   -529.086846
PC25 -17269.321326   4249.534613 -21512.225528     56.992037
PC26 -14538.581341 -22737.079748   7003.298687    -65.653191
PC27   9525.302891  13842.313440  22260.741872     82.966852
PC28 -10492.886815  16329.058990  20056.888052     59.965053
PC29  25552.746261  -9935.361840  -5195.939738     68.685837
PC30  24652.727227   3107.544957  12673.539475      1.268585
PC32   4117.934360  22695.863603 -15687.628097   -647.562101
PC33 -16710.201677  14593.043276  16927.153695   -880.028899
PC34 -25270.622816  -2306.371964 -11648.655049     85.727819
PC35  11290.303108 -16630.477274 -19346.999028    528.427500
PC36  17775.647014  -3162.230073  21296.252307   -688.270603
PC37  13003.583462  23279.494005  -8275.016491   -845.116257
PC38  -5162.928363  27752.640607  31403.993138     52.571056
PC39 -21634.648882  22561.153858 -28366.953072     -1.460069
PC40 -19062.142674  37465.009126    494.404901    -12.777023
PC41  -9282.000931  26289.268471   1289.617532   -504.552795
PC42 -14605.946401  -6131.414083  23018.546081   -890.271764
PC43 -25906.239020   9429.130251   4408.421945      2.540005
PC44  -9887.908092 -13698.381346 -22225.228999    180.206078
PC45   2741.692771 -18772.936509  20447.446663    -48.731389
PC46  22105.176780  13495.079966  10441.676921    -27.079972
PE01   7438.417021 -23073.386905  16970.957987   -595.771350
PE02  -7198.074193  23368.792695 -16707.012734     15.265394
PE03 -17369.741413  22600.172634  -7976.934921   -640.855321
PE04    -18.278493 -20182.763105  21653.173537    -38.211482
PE05 -24954.408689  11765.497731  10730.419232   -104.282277
PE07  17806.398207   5837.031552 -22912.510433    -15.885197
PE08   -125.334778  20136.791348 -21695.875312    -20.982584
PE09 -17582.373364  -5883.193576  23070.985842   -803.379387
PE10 -19908.188785 -16480.633467 -14427.653233   -505.752132
PE11 -26581.858291 -12197.402769  -4617.345537    500.050464
PE12 -10704.668639 -17977.760408 -20940.584903   -387.650519
PE13  26205.218820  12601.199362   5527.286087    429.863570
PE14 -17718.313295  15830.324677   3878.551527    116.055895
PE15  10374.845467  17896.481417  21180.529253    693.533293
PE18  16464.032262 -24229.519503 -13588.558998   -498.422559
PE19  19258.922133 -21784.036150   5522.608571  -3463.797535
PE21  15922.786166  -5433.880462  24348.389621   -506.799388
PE24 -15803.150511 -17529.774724 -17862.518999  -1063.166959
PE25 -16004.808315   5096.214175 -24373.058231   -597.385177
PE26  26162.569458   -643.547889 -13821.001215  -1848.676743
PE27  16060.776536  16702.685652  18427.617314   -489.956264
PE30   6183.033593  28941.755654   1031.431585  -1167.863489
PE31  -6738.429485 -28764.573384  -1717.143002   -513.567836
PE33  11448.564014 -12588.692565 -24208.903089   -454.042859
PE34 -11255.345515  12700.604411  24252.532856    -25.315943
PE36 -26504.275739     23.698188  13198.107687   -491.815785
PG01 -21349.745477 -14538.816834  -7239.862782    223.285023
PG02  23355.488097  11481.702963   5288.188437   -626.741577
PG03 -12319.127256 -18351.894037  14688.463359   -371.593427
PG04 -14890.201971  -7211.528670  20805.767420    -46.824571
PG05   5618.403363  25851.123342  -1632.820910   -112.346552
PG06 -13668.327279   9156.152057  20941.153367    559.904920
PG07 -25317.835695  -5983.115440  -6075.215163    257.238667
PG08  -4442.049882 -15400.043484 -21165.149681   -104.035224
PG09 -21595.825359   3652.857989  14979.718641   -234.831938
PG10  11880.753679 -12616.831158 -19861.547518    -20.789589
PG11   -156.195361  16159.991278  21094.786275    -80.961594
PG12  10463.133851  20221.599121  13485.803733   -329.218558
PG13  -4505.021424  17768.052137 -19327.252056    460.929401
PG14 -13741.387557   9900.582894 -20425.548283    -47.458231
PG15   6897.613969  15225.622877 -21047.042677      5.429242
PG16   -336.373340 -26271.352221    962.752582   -523.557921
PG17 -22959.972345  13057.449904  -2800.005933    693.966851
PG18  24516.544769   3535.175191  -9777.450089   -102.838147
PG19 -18724.085421  17075.020600   7250.481648    265.359676
PG20   -482.534045  24547.537469  10432.530771    456.478078
PG21 -16697.131867 -15466.984434 -13727.535759    153.505457
PG22  15406.495868 -18822.657203  10884.724095    407.861076
PG23  15089.473496    -37.031255 -21863.579205      2.766641
PG24  19308.281651  14971.072017 -11262.335749    -34.048959
PG25  14930.543776  11152.917513  18721.047822    412.122798
PG26   5931.171339 -21850.230612  13499.340649    240.432188
PG27   7053.095461 -19610.212762 -16445.710963    124.760063
PG29  20466.608261    307.273323  16921.779624   -580.943610
PG30 -20526.504584   4277.604536 -16359.202329   -533.021791
PG31  12637.048027 -10499.414526  20786.566218   -206.591758
PG32  21187.118367 -15809.715486   -688.758781   -367.040290
PJ02 -20832.303204  26637.389072 -20573.511736     -0.597982
PJ03 -28857.687958  25124.087473  22715.872653     -0.057328
PJ04 -28879.248043  29174.336012  15595.496708    119.173930
PR01    141.184146 -18647.417456  17409.726978     21.405722
PR02 -11042.339046  -2240.832047  22932.609566    -23.333883
PR03 -15491.088278  14449.208511  14301.336174     71.000169
PR04 -11399.198391  22736.160716  -2038.182776    172.590265
PR05  -1151.507219  18723.632523 -17289.392783    106.314669
PR07  15438.414997 -15025.334274 -13576.658028     48.165054
PR08  11121.194179 -22821.850450   2343.141279    -69.079199
PR09  16816.387217  13578.126610  13499.848699     99.053088
PR11    487.503411 -16452.084115  19497.203616      5.443978
PR12 -11792.860233 -22293.106894   3767.271438     24.374701
PR13 -16592.020197 -15113.069853 -12137.575077    -31.059384
PR14 -11542.596626   2292.464734 -22627.501315     24.222037
PR15     56.733448  17213.549150 -18812.735357     91.645394
PR16  11841.724953  22200.946731  -4103.599778     10.077337
PR17 -23721.830279   4310.951430   8288.867483    596.619229
PR18 -11451.033187   9486.418475  20762.038713     62.242261
PR19   5163.423735  10202.773166  22806.835132   -218.572886
PR20  22879.910178   4863.160396  10135.463175    -86.040221
PR21  23047.696548  -4812.170225  -9836.753184   -366.177103
PR22  10922.650255  -9601.229597 -20921.405568     67.012462
PR24 -23357.224317  -4044.105903  -9384.327398    140.227065
PR25  24077.499551  -3094.518252  -7854.082496     51.860930
EOF
